STARLINK-34498          
1 64421C 25129K   26085.43590278 -.00045252  00000+0 -37931-2 0   855
2 64421  70.0015  32.2874 0002956 273.9092 114.7004 14.98345746    11
STARLINK-34434          
1 64422C 25129L   26085.39354167 -.00020671  00000+0 -17327-2 0   851
2 64422  70.0015  32.5164 0002708 271.2571 136.3761 14.98334167    10
STARLINK-34467          
1 64423C 25129M   26085.32548611  .00030295  00000+0  25383-2 0   856
2 64423  70.0020  32.4900 0002756 272.6504 307.9676 14.98323634    16
STARLINK-34468          
1 64424C 25129N   26085.36784722 -.00008832  00000+0 -74024-3 0   857
2 64424  70.0016  32.6054 0003000 273.9672 331.7101 14.98331107    19
STARLINK-34452          
1 64425C 25129P   26085.38381944 -.00018173  00000+0 -15229-2 0   859
2 64425  70.0018  32.2647 0002957 274.3108 327.6100 14.98341426    13
STARLINK-34432          
1 64426C 25129Q   26085.30812500  .00011478  00000+0  96192-3 0   857
2 64426  70.0019  32.5529 0002926 276.0882 188.5199 14.98324132    18
STARLINK-34480          
1 64427C 25129R   26085.41159722 -.00035928  00000+0 -30111-2 0   856
2 64427  70.0018  32.1905 0002977 273.3733 119.2132 14.98346877    11
STARLINK-34495          
1 64428C 25129S   26085.33243056  .00000481  00000+0  40292-4 0   859
2 64428  70.0018  32.4481 0002757 274.4156   6.2714 14.98329935    18
STARLINK-34501          
1 64429C 25129T   26085.41923611 -.00033967  00000+0 -28468-2 0   857
2 64429  70.0015  32.4010 0002801 273.5135 317.6910 14.98345314    17
STARLINK-34441          
1 64430C 25129U   26085.38729167 -.00013141  00000+0 -11015-2 0   857
2 64430  70.0017  32.3830 0003082 273.4061 235.5935 14.98329334    18
STARLINK-34524          
1 64431C 25129V   26085.38104167 -.00021236  00000+0 -17797-2 0   852
2 64431  70.0017  32.2977 0002960 273.4148 291.9048 14.98339294    17
STARLINK-34506          
1 64432C 25129W   26085.40534722 -.00027522  00000+0 -23069-2 0   853
2 64432  70.0019  32.1346 0002943 273.3280 153.0936 14.98336468    10
STARLINK-34451          
1 64433C 25129X   26085.31090278  .00017406  00000+0  14589-2 0   852
2 64433  70.0016  32.6954 0002821 274.5590  69.0843 14.98317979    19
STARLINK-34472          
1 64434C 25129Y   26085.30673611  .00010933  00000+0  91630-3 0   851
2 64434  70.0016  32.6077 0003997 272.3691 138.8365 14.98321126    12
STARLINK-34478          
1 64435C 25129Z   26085.33104167 -.00000986  00000+0 -82655-4 0   857
2 64435  70.0020  32.4487 0002940 274.4644 357.8373 14.98332602    12
STARLINK-34396          
1 64436C 25129AA  26085.32131944  .00022224  00000+0  18626-2 0   852
2 64436  70.0016  32.6119 0002803 275.1234 169.7078 14.98316938    19
STARLINK-34507          
1 64437C 25129AB  26085.33798611  .00007359  00000+0  61669-3 0   852
2 64437  70.0017  32.3531 0002567 275.1851 102.0978 14.98326897    12
STARLINK-34465          
1 64438C 25130A   26085.34493056  .00020272  00000+0  68319-3 0   859
2 64438  53.1592  11.1478 0001220  92.0638 264.9487 15.30183561    11
STARLINK-34456          
1 64439C 25130B   26085.34631944  .00032176  00000+0  10848-2 0   859
2 64439  53.1604  11.0249 0001258  88.3799 334.4388 15.30165913    12
STARLINK-34410          
1 64440C 25130C   26085.31923611  .00033920  00000+0  11438-2 0   857
2 64440  53.1608  11.0461 0001242  77.7167 248.1822 15.30159142    19
STARLINK-34453          
1 64441C 25130D   26085.39284722 -.00000091  00000+0 -30723-5 0   855
2 64441  53.1589  11.0928 0001248  88.3465  85.5026 15.30181195    13
STARLINK-34404          
1 64442C 25130E   26085.30673611  .00055663  00000+0  18770-2 0   854
2 64442  53.1588  11.3571 0001267  86.2174  42.8230 15.30146840    16
STARLINK-34403          
1 64443C 25130F   26085.32409722  .00040988  00000+0  13821-2 0   853
2 64443  53.1610  11.0425 0001177  90.0502 251.0085 15.30155250    13
STARLINK-34399          
1 64444C 25130G   26085.40187500 -.00009445  00000+0 -31841-3 0   858
2 64444  53.1590  11.0695 0001285  92.3024 119.6747 15.30189343    18
STARLINK-34398          
1 64445C 25130H   26085.42340278 -.00017420  00000+0 -58711-3 0   851
2 64445  53.1600  11.0638 0001368  81.2856 202.7999 15.30200635    11
STARLINK-34402          
1 64446C 25130J   26085.36368056  .00014425  00000+0  48623-3 0   850
2 64446  53.1610  10.7672 0001253  88.3017 157.4464 15.30181601    11
STARLINK-34450          
1 64447C 25130K   26085.32687500  .00041711  00000+0  14064-2 0   854
2 64447  53.1596  11.4888 0001397  91.6178  32.0860 15.30158168    16
STARLINK-34433          
1 64448C 25130L   26085.43798611 -.00028693  00000+0 -96732-3 0   852
2 64448  53.1606  11.0513 0001315  80.6698 254.7250 15.30197297    17
STARLINK-34459          
1 64449C 25130M   26085.37409722  .00012148  00000+0  40955-3 0   850
2 64449  53.1585  11.1300 0001297  82.8356  10.9482 15.30175751    13
STARLINK-34361          
1 64450C 25130N   26085.31576389  .00035568  00000+0  11992-2 0   859
2 64450  53.1589  11.3438 0001319  81.8864  79.4769 15.30161139    14
STARLINK-34392          
1 64451C 25130P   26085.40187500 -.00005824  00000+0 -19633-3 0   858
2 64451  53.1603  11.1931 0001296  92.7573  55.2368 15.30188996    17
STARLINK-34367          
1 64452C 25130Q   26085.29423611  .00047833  00000+0  16098-2 0   857
2 64452  53.1606  11.2281 0001304  71.4103  81.8322 15.30214194    18
STARLINK-34221          
1 64453C 25130R   26085.42270833 -.00017430  00000+0 -58758-3 0   851
2 64453  53.1585  10.8840 0001279  90.6269 282.7067 15.30192724    10
STARLINK-34282          
1 64454C 25130S   26085.40465278 -.00001120  00000+0 -37741-4 0   858
2 64454  53.1603  13.3749 0001335  78.5360  52.7704 15.30186554    15
STARLINK-34295          
1 64455C 25130T   26085.37340278  .00014019  00000+0  47270-3 0   853
2 64455  53.1596  11.2346 0001272  79.2505 318.3509 15.30171288    18
STARLINK-34430          
1 64456C 25130U   26085.42548611 -.00027083  00000+0 -91296-3 0   855
2 64456  53.1611  10.5337 0001295  84.1888 113.1330 15.30199596    18
STARLINK-34445          
1 64457C 25130V   26085.38451389  .00000961  00000+0  32406-4 0   859
2 64457  53.1587  11.0454 0001152  96.3192  72.3177 15.30184965    11
STARLINK-34439          
1 64458C 25130W   26085.39770833 -.00005798  00000+0 -19546-3 0   853
2 64458  53.1609  10.7077 0001199  81.2883 299.6613 15.30188308    19
STARLINK-34421          
1 64459C 25130X   26085.37548611  .00012533  00000+0  42252-3 0   852
2 64459  53.1587  11.1310 0001434  94.9228   0.6883 15.30176409    14
STARLINK-34423          
1 64460C 25130Y   26085.39631944 -.00001610  00000+0 -54272-4 0   850
2 64460  53.1609  10.6428 0001293  76.2941 331.9133 15.30180221    18
STARLINK-34418          
1 64461C 25130Z   26085.38659722  .00010408  00000+0  35074-3 0   855
2 64461  53.1593  11.1812 0001466  75.5327  28.9707 15.30189334    10
STARLINK-34336          
1 64462C 25130AA  26085.31854167  .00048797  00000+0  16450-2 0   857
2 64462  53.1610  13.8426 0001297  71.2746 235.6831 15.30160183    17
STARLINK-34400          
1 64463C 25130AB  26085.40604167 -.00000532  00000+0 -17936-4 0   850
2 64463  53.1608  13.4328 0001276  81.7145  22.3495 15.30186185    15
STARLINK-34429          
1 64464C 25130AC  26085.37131944  .00011188  00000+0  37716-3 0   859
2 64464  53.1598  10.9768 0001342  91.5019  68.4004 15.30177358    16
STARLINK-34449          
1 64465C 25130AD  26085.35534722  .00018383  00000+0  61982-3 0   855
2 64465  53.1589  11.2413 0001270  85.5409 247.4521 15.30169421    19
STARLINK-34493          
1 64472C 25133A   26085.31506944  .00037286  00000+0  12569-2 0   856
2 64472  53.1610  39.8043 0001387  78.6421 173.7242 15.30165903    15
STARLINK-34492          
1 64473C 25133B   26085.37340278  .00041841  00000+0  14102-2 0   856
2 64473  53.1610  39.4982 0001312  87.4718 143.8665 15.30170765    18
STARLINK-34474          
1 64474C 25133C   26085.31159722  .00040856  00000+0  13772-2 0   850
2 64474  53.1612  39.7506 0001350  76.5670 191.5741 15.30166631    16
STARLINK-34523          
1 64475C 25133D   26085.37618056  .00031391  00000+0  10582-2 0   857
2 64475  53.1606  39.3808 0001237  87.5775 211.4104 15.30169180    10
STARLINK-34496          
1 64476C 25133E   26085.39770833  .00037348  00000+0  12590-2 0   851
2 64476  53.1597  39.2131 0001299  85.5485   7.0032 15.30166130    13
STARLINK-34375          
1 64477C 25133F   26085.36645833  .00037750  00000+0  12728-2 0   850
2 64477  53.1594  39.2897 0001249  83.4258 231.7806 15.30160437    19
STARLINK-34490          
1 64478C 25133G   26085.43520833  .00009616  00000+0  32415-3 0   857
2 64478  53.1586  38.8548 0001177  86.3749 305.9306 15.30180597    14
STARLINK-34528          
1 64479C 25133H   26085.40534722  .00027630  00000+0  93140-3 0   855
2 64479  53.1587  39.0287 0001326  86.2491 124.0228 15.30171287    17
STARLINK-34518          
1 64480C 25133J   26085.34562500  .00043183  00000+0  14558-2 0   851
2 64480  53.1589  39.2375 0001268  92.7484 183.2529 15.30160845    19
STARLINK-34526          
1 64481C 25133K   26085.36020833  .00038394  00000+0  12944-2 0   857
2 64481  53.1589  39.1344 0001217  83.1571 290.6804 15.30162008    12
STARLINK-34527          
1 64482C 25133L   26085.33243056  .00044533  00000+0  15016-2 0   854
2 64482  53.1596  39.1582 0001311  77.9643 195.1161 15.30155446    14
STARLINK-34420          
1 64483C 25133M   26085.35256944  .00060085  00000+0  20257-2 0   850
2 64483  53.1599  38.9940 0001229  88.2241 330.7489 15.30151224    10
STARLINK-34509          
1 64484C 25133N   26085.35465278  .00038156  00000+0  12864-2 0   852
2 64484  53.1606  39.6612 0001258  84.5192   2.7689 15.30161772    17
STARLINK-34409          
1 64485C 25133P   26085.41506944  .00029451  00000+0  99178-3 0   858
2 64485  53.1607  39.3568 0001343  70.8515   1.0582 15.30204141    10
